NORAD_CAT_ID,OBJECT_NAME,OBJECT_TYPE,EPOCH,MEAN_MOTION,ECCENTRICITY,INCLINATION,RA_OF_ASC_NODE,ARG_OF_PERICENTER,MEAN_ANOMALY,BSTAR,MEAN_MOTION_DOT,MEAN_MOTION_DDOT,TLE_LINE0,TLE_LINE1,TLE_LINE2,SEMIMAJOR_AXIS,PERIOD,APOGEE,PERIGEE,DECAYED
52339.0,STARLINK-3792,PAYLOAD,2023-03-03 10:59:17,15.088749,0.000111,53.2143,117.2313,91.2257,268.8862,0.001685,0.00026656,0.0,0 STARLINK-3792,1 52339U 22045J   23062.45784659  .00026656  00000-0  16850-2 0  9993,2 52339  53.2143 117.2313 0001110  91.2257 268.8862 15.08874900 49240,6917.774,95.435,540.407,538.871,0.0
52339.0,STARLINK-3792,PAYLOAD,2023-03-03 20:31:36,15.08846403,0.0001291,53.2147,115.4466,95.7688,264.3451,0.0013458,0.00021199,0.0,0 STARLINK-3792,1 52339U 22045J   23062.85528731  .00021199  00000-0  13458-2 0  9992,2 52339  53.2147 115.4466 0001291  95.7688 264.3451 15.08846403 49309,6917.861,95.437,540.619,538.833,0.0
52339.0,STARLINK-3792,PAYLOAD,2023-03-04 09:14:42,15.08843653,0.0001495,53.2144,113.0702,97.2075,262.9087,0.0011735,0.00018439,0.0,0 STARLINK-3792,1 52339U 22045J   23063.38520934  .00018439  00000-0  11735-2 0  9997,2 52339  53.2144 113.0702 0001495  97.2075 262.9087 15.08843653 49387,6917.869,95.437,540.768,538.7,0.0
52339.0,STARLINK-3792,PAYLOAD,2023-03-04 20:22:24,15.08839403,0.0001417,53.2143,110.9865,86.2272,273.8882,0.00062879,9.733e-05,0.0,0 STARLINK-3792,1 52339U 22045J   23063.84889228  .00009733  00000-0  62879-3 0  9995,2 52339  53.2143 110.9865 0001417  86.2272 273.8882 15.08839403 49453,6917.882,95.438,540.727,538.767,0.0
52339.0,STARLINK-3792,PAYLOAD,2023-03-05 12:16:16,15.08841434,0.0001911,53.2142,108.0119,85.0522,275.0688,0.00077434,0.00012058,0.0,0 STARLINK-3792,1 52339U 22045J   23064.51129861  .00012058  00000-0  77434-3 0  9997,2 52339  53.2142 108.0119 0001911  85.0522 275.0688 15.08841434 49552,6917.876,95.437,541.063,538.419,0.0
52339.0,STARLINK-3792,PAYLOAD,2023-03-05 20:13:11,15.08840433,0.0001745,53.2139,106.5244,96.5161,263.603,0.00071925,0.00011178,0.0,0 STARLINK-3792,1 52339U 22045J   23064.84249876  .00011178  00000-0  71925-3 0  9993,2 52339  53.2139 106.5244 0001745  96.5161 263.6030 15.08840433 49609,6917.879,95.438,540.951,538.537,0.0
52339.0,STARLINK-3792,PAYLOAD,2023-03-06 08:56:16,15.08863684,0.0001611,53.214,104.1444,94.6824,265.4352,0.0010373,0.0001627,0.0,0 STARLINK-3792,1 52339U 22045J   23065.37241163  .00016270  00000-0  10373-2 0  9990,2 52339  53.2140 104.1444 0001611  94.6824 265.4352 15.08863684 49682,6917.808,95.436,540.787,538.559,0.0
52339.0,STARLINK-3792,PAYLOAD,2023-03-06 20:03:58,15.08826357,0.0001638,53.214,102.0652,92.2048,267.9132,-0.00060981,-9.976e-05,0.0,0 STARLINK-3792,1 52339U 22045J   23065.83609629 -.00009976  00000-0 -60981-3 0  9994,2 52339  53.2140 102.0652 0001638  92.2048 267.9132 15.08826357 49758,6917.922,95.438,540.92,538.654,0.0
52339.0,STARLINK-3792,PAYLOAD,2023-03-07 08:47:03,15.08840915,8.73e-05,53.2145,99.6852,101.0531,259.0559,0.0022842,0.00036253,0.0,0 STARLINK-3792,1 52339U 22045J   23066.36601649  .00036253  00000-0  22842-2 0  9996,2 52339  53.2145  99.6852 0000873 101.0531 259.0559 15.08840915 49832,6917.878,95.437,540.347,539.139,0.0
52339.0,STARLINK-3792,PAYLOAD,2023-03-07 13:33:13,15.08854603,8.99e-05,53.214,98.7925,99.8368,260.2725,0.0024021,0.00038164,0.0,0 STARLINK-3792,1 52339U 22045J   23066.56473559  .00038164  00000-0  24021-2 0  9999,2 52339  53.2140  98.7925 0000899  99.8368 260.2725 15.08854603 49869,6917.836,95.437,540.323,539.079,0.0
52339.0,STARLINK-3792,PAYLOAD,2023-03-08 13:24:00,15.08872028,9.18e-05,53.2142,94.3323,105.6343,254.475,0.0022289,0.00035395,0.0,0 STARLINK-3792,1 52339U 22045J   23067.55833588  .00035395  00000-0  22289-2 0  9998,2 52339  53.2142  94.3323 0000918 105.6343 254.4750 15.08872028 50019,6917.782,95.436,540.283,539.012,0.0
52339.0,STARLINK-3792,PAYLOAD,2023-03-08 18:10:09,15.08844036,9.87e-05,53.2143,93.4408,112.9927,247.117,0.0010512,0.00016483,0.0,0 STARLINK-3792,1 52339U 22045J   23067.75705991  .00016483  00000-0  10512-2 0  9999,2 52339  53.2143  93.4408 0000987 112.9927 247.1170 15.08844036 50045,6917.868,95.437,540.416,539.05,0.0
52339.0,STARLINK-3792,PAYLOAD,2023-03-09 18:00:56,15.0886993,9.22e-05,53.2152,88.9783,84.2017,275.908,0.0015232,0.00024057,0.0,0 STARLINK-3792,1 52339U 22045J   23068.75065367  .00024057  00000-0  15232-2 0  9996,2 52339  53.2152  88.9783 0000922  84.2017 275.9080 15.08869930 50195,6917.789,95.436,540.292,539.016,0.0
52339.0,STARLINK-3792,PAYLOAD,2023-03-10 05:08:38,15.08846491,0.0001015,53.2142,86.8975,93.9512,266.1596,0.0011894,0.00018695,0.0,0 STARLINK-3792,1 52339U 22045J   23069.21433508  .00018695  00000-0  11894-2 0  9995,2 52339  53.2142  86.8975 0001015  93.9512 266.1596 15.08846491 50264,6917.861,95.437,540.428,539.023,0.0
52339.0,STARLINK-3792,PAYLOAD,2023-03-10 17:51:43,15.08855795,8.2e-05,53.2137,84.5186,76.0391,284.0693,0.00094979,0.00014867,0.0,0 STARLINK-3792,1 52339U 22045J   23069.74425271  .00014867  00000-0  94979-3 0  9994,2 52339  53.2137  84.5186 0000820  76.0391 284.0693 15.08855795 50340,6917.832,95.437,540.264,539.13,0.0
52339.0,STARLINK-3792,PAYLOAD,2023-03-11 09:45:35,15.08836264,0.0001451,53.2149,81.5456,89.6273,270.4886,0.00074093,0.00011522,0.0,0 STARLINK-3792,1 52339U 22045J   23070.40666169  .00011522  00000-0  74093-3 0  9992,2 52339  53.2149  81.5456 0001451  89.6273 270.4886 15.08836264 50444,6917.892,95.438,540.761,538.753,0.0
52339.0,STARLINK-3792,PAYLOAD,2023-03-11 12:56:21,15.08844616,0.0001314,53.2146,80.9497,87.4856,272.6286,0.0011401,0.00017906,0.0,0 STARLINK-3792,1 52339U 22045J   23070.53914069  .00017906  00000-0  11401-2 0  9996,2 52339  53.2146  80.9497 0001314  87.4856 272.6286 15.08844616 50460,6917.866,95.437,540.64,538.822,0.0
52339.0,STARLINK-3792,PAYLOAD,2023-03-12 06:25:36,15.08841796,0.000155,53.2155,77.6807,84.8963,275.2206,0.0007741,0.00012054,0.0,0 STARLINK-3792,1 52339U 22045J   23071.26778677  .00012054  00000-0  77410-3 0  9992,2 52339  53.2155  77.6807 0001550  84.8963 275.2206 15.08841796 50579,6917.875,95.437,540.812,538.668,0.0
52339.0,STARLINK-3792,PAYLOAD,2023-03-12 08:00:59,15.08844624,0.0001395,53.2152,77.3825,92.9045,267.2107,0.00065701,0.00010185,0.0,0 STARLINK-3792,1 52339U 22045J   23071.33402518  .00010185  00000-0  65701-3 0  9991,2 52339  53.2152  77.3825 0001395  92.9045 267.2107 15.08844624 50586,6917.866,95.437,540.696,538.766,0.0
52339.0,STARLINK-3792,PAYLOAD,2023-03-12 23:54:51,15.08850262,0.0001661,53.2146,74.41,70.3637,289.7534,0.00062558,9.685e-05,0.0,0 STARLINK-3792,1 52339U 22045J   23071.99642532  .00009685  00000-0  62558-3 0  9995,2 52339  53.2146  74.4100 0001661  70.3637 289.7534 15.08850262 50685,6917.849,95.437,540.863,538.565,0.0
52339.0,STARLINK-3792,PAYLOAD,2023-03-14 06:07:10,15.08841948,0.0001269,53.2155,68.7572,97.7071,262.4066,0.00012364,1.68e-05,0.0,0 STARLINK-3792,1 52339U 22045J   23073.25498480  .00001680  00000-0  12364-3 0  9994,2 52339  53.2155  68.7572 0001269  97.7071 262.4066 15.08841948 50873,6917.874,95.437,540.617,538.862,0.0
52339.0,STARLINK-3792,PAYLOAD,2023-03-14 09:17:56,15.08843246,0.0001284,53.2157,68.1623,101.7685,258.3451,0.00011983,1.62e-05,0.0,0 STARLINK-3792,1 52339U 22045J   23073.38746423  .00001620  00000-0  11983-3 0  9991,2 52339  53.2157  68.1623 0001284 101.7685 258.3451 15.08843246 50897,6917.87,95.437,540.624,538.847,0.0
52339.0,STARLINK-3792,PAYLOAD,2023-03-15 10:44:05,15.08867166,0.0001751,53.2165,63.4021,125.2829,234.8327,0.00054957,8.476e-05,0.0,0 STARLINK-3792,1 52339U 22045J   23074.44729069  .00008476  00000-0  54957-3 0  9990,2 52339  53.2165  63.4021 0001751 125.2829 234.8327 15.08867166 51053,6917.797,95.436,540.874,538.451,0.0
52339.0,STARLINK-3792,PAYLOAD,2023-03-16 05:48:43,15.08858005,0.0001246,53.2159,59.8358,95.3202,264.7932,0.00044138,6.747e-05,0.0,0 STARLINK-3792,1 52339U 22045J   23075.24217469  .00006747  00000-0  44138-3 0  9994,2 52339  53.2159  59.8358 0001246  95.3202 264.7932 15.08858005 51178,6917.825,95.436,540.552,538.828,0.0
52339.0,STARLINK-3792,PAYLOAD,2023-03-16 10:34:53,15.08863511,0.0001251,53.2162,58.945,98.0723,262.0411,0.00085481,0.00013351,0.0,0 STARLINK-3792,1 52339U 22045J   23075.44089232  .00013351  00000-0  85481-3 0  9996,2 52339  53.2162  58.9450 0001251  98.0723 262.0411 15.08863511 51204,6917.809,95.436,540.539,538.808,0.0
52339.0,STARLINK-3792,PAYLOAD,2023-03-16 15:21:02,15.08868869,0.00012,53.2163,58.0537,100.2348,259.8779,0.0012364,0.0001946,0.0,0 STARLINK-3792,1 52339U 22045J   23075.63960989  .00019460  00000-0  12364-2 0  9990,2 52339  53.2163  58.0537 0001200 100.2348 259.8779 15.08868869 51230,6917.792,95.436,540.487,538.827,0.0
52339.0,STARLINK-3792,PAYLOAD,2023-03-16 23:17:59,15.08831871,0.0001374,53.2161,56.5662,97.4015,262.7133,0.00055346,8.529e-05,0.0,0 STARLINK-3792,1 52339U 22045J   23075.97082225  .00008529  00000-0  55346-3 0  9997,2 52339  53.2161  56.5662 0001374  97.4015 262.7133 15.08831871 51285,6917.905,95.438,540.721,538.82,0.0
52339.0,STARLINK-3792,PAYLOAD,2023-03-17 10:25:41,15.08840247,0.0001101,53.2157,54.4854,87.0414,273.0704,0.0012669,0.00019932,0.0,0 STARLINK-3792,1 52339U 22045J   23076.43450469  .00019932  00000-0  12669-2 0  9998,2 52339  53.2157  54.4854 0001101  87.0414 273.0704 15.08840247 51350,6917.88,95.438,540.506,538.983,0.0
52339.0,STARLINK-3792,PAYLOAD,2023-03-17 15:11:50,15.08848091,0.0001099,53.2158,53.5931,89.5124,270.5994,0.0012268,0.00019295,0.0,0 STARLINK-3792,1 52339U 22045J   23076.63322380  .00019295  00000-0  12268-2 0  9997,2 52339  53.2158  53.5931 0001099  89.5124 270.5994 15.08848091 51389,6917.856,95.437,540.481,538.96,0.0
52339.0,STARLINK-3792,PAYLOAD,2023-03-18 05:30:19,15.08847083,0.0001636,53.2162,50.916,75.7499,284.3675,0.00080845,0.00012604,0.0,0 STARLINK-3792,1 52339U 22045J   23077.22938766  .00012604  00000-0  80845-3 0  9998,2 52339  53.2162  50.9160 0001636  75.7499 284.3675 15.08847083 51477,6917.859,95.437,540.856,538.592,0.0
